IRIDIUM 144             
1 43249U 18030A   24168.54490180  .00000208  00000+0  67246-4 0  9994
2 43249  86.3980 235.7292 0002533  99.0575 261.0908 14.34217549325417
IRIDIUM 149             
1 43250U 18030B   24168.55124423  .00000075  00000+0  19763-4 0  9994
2 43250  86.3979 235.7017 0002467  94.7508 265.3970 14.34217940325439
IRIDIUM 157             
1 43251U 18030C   24168.57027202  .00000013  00000+0 -24803-5 0  9999
2 43251  86.3983 235.7304 0002168  86.7812 273.3631 14.34217296325416
IRIDIUM 140             
1 43252U 18030D   24168.58929997  .00000084  00000+0  23096-4 0  9992
2 43252  86.3981 235.7372 0002378 104.7714 255.3745 14.34217726325475
IRIDIUM 145             
1 43253U 18030E   24168.57661530 -.00000008  00000+0 -10084-4 0  9999
2 43253  86.3982 235.7162 0002628  97.9643 262.1852 14.34217362325400
IRIDIUM 146             
1 43254U 18030F   24168.55758634  .00000099  00000+0  28159-4 0  9990
2 43254  86.3981 235.7391 0002492  96.0704 264.0775 14.34218211325411
IRIDIUM 148             
1 43255U 18030G   24168.59564213  .00000174  00000+0  55112-4 0  9996
2 43255  86.3982 235.7550 0002388  90.3358 269.8111 14.34218235325453
IRIDIUM 142             
1 43256U 18030H   24168.56393046  .00000386  00000+0  13076-3 0  9995
2 43256  86.3978 235.6839 0002642  96.6459 263.5037 14.34219173325418
